P/2020 WJ5 (Lemmon),e,22.2944,177.8107,338.2387,6.016363,0.0667887,0.17127449,33.8941,11/21.0/2022,2000,g  8.5,4.0
# From MPEC 2021-P47
P/2020 X1 (ATLAS),e,31.6925,55.9991,323.3807,4.529589,0.1022388,0.36554536,87.2349,11/21.0/2022,2000,g 13.0,4.0
# From MPEC 2021-U31
C/2020 X2 (ATLAS),e,18.1859,105.4346,347.3525,16.43654,0.0147907,0.76714900,10.8722,11/21.0/2022,2000,g 10.6,4.0
# From MPEC 2021-S45
C/2020 X4 (Leonard),e,80.6061,161.8821,140.3027,40.88016,0.0037708,0.87228129,2.7710,11/21.0/2022,2000,g  9.0,4.0
# From MPEC 2022-VC5
C/2020 Y2 (ATLAS),e,101.2978,26.5151,266.1106,1036,0.0000296,0.99697531,0.0000,06/17.7152/2022,2000,g  6.5,4.0
# From MPEC 2021-R75
C/2020 Y3 (ATLAS),e,83.1009,191.4422,341.9817,144.5889,0.0005669,0.98618525,0.0000,12/03.3628/2020,2000,g 13.5,4.0
# From MPEC 2022-H04
C/2021 A1 (Leonard),e,132.6949,255.8963,225.0990,30536,0.0000002,0.99997985,0.0000,01/03.2855/2022,2000,g  8.5,4.0
# From MPEC 2022-F14
C/2021 A2 (NEOWISE),e,106.9810,125.2169,338.7988,237.6663,0.0002690,0.99405808,0.0000,01/22.5076/2021,2000,g 13.5,4.0
# From MPEC 2022-ED3
C/2021 A4 (NEOWISE),e,111.5315,307.1137,204.7043,42.56534,0.0035491,0.97305514,0.0000,03/19.8515/2021,2000,g 16.0,4.0
# From MPEC 2021-BE3
P/2021 A5 (PANSTARRS),e,18.1855,328.7666,61.2915,3.047575,0.1852561,0.13989197,136.8328,11/21.0/2022,2000,g 15.0,4.0
# From MPEC 2022-K19
C/2021 A6 (PANSTARRS),e,75.6091,164.0781,351.6565,9825,0.0000010,0.99919313,0.0000,05/03.5784/2021,2000,g  7.0,4.0
# From MPEC 2022-M88
C/2021 A7 (NEOWISE),e,78.1504,154.5130,356.0257,2870,0.0000064,0.99931465,0.0000,07/15.2360/2021,2000,g 10.0,4.0
# From MPEC 2022-UY9
C/2021 A9 (PANSTARRS),h,12/01.4342/2023,158.0214,314.8428,211.4524,1.002796,7.760370,2000,6.0,4.0
# From MPEC 2021-N06
C/2021 A10 (NEOWISE),e,151.9127,188.6617,82.3554,88.80180,0.0011778,0.98578622,0.0000,03/15.2108/2021,2000,g 19.0,4.0
# From MPEC 2022-L66
C/2021 B2 (PANSTARRS),e,38.0870,120.5386,334.9672,355.5056,0.0001470,0.99293341,0.0000,05/04.3038/2021,2000,g 14.0,4.0
# From MPEC 2021-N06
C/2021 B3 (NEOWISE),e,119.4816,67.2857,293.5462,34.63450,0.0048355,0.93761901,2.9993,11/21.0/2022,2000,g 13.5,4.0
# From MPEC 2022-ED3
C/2021 C1 (Rankin),e,143.0455,186.8997,336.2667,20740,0.0000003,0.99983225,0.0000,12/07.0199/2020,2000,g 11.5,4.0
# From MPEC 2021-U31
P/2021 C2 (PANSTARRS),e,21.9325,66.4662,78.7426,9.534223,0.0334793,0.48726909,21.2690,11/21.0/2022,2000,g 12.0,4.0
# From MPEC 2021-N06
C/2021 C3 (Catalina),e,122.1643,181.9279,357.0988,62.39254,0.0019999,0.96353767,1.2933,11/21.0/2022,2000,g 14.0,4.0
# From MPEC 2022-M88
C/2021 C4 (ATLAS),h,01/17.0932/2021,132.8539,194.2779,320.2170,1.000009,4.502997,2000,9.0,4.0
# From MPEC 2022-QD9
C/2021 C5 (PANSTARRS),e,50.7818,323.6855,270.9214,2793,0.0000067,0.99883930,0.0000,02/11.0782/2023,2000,g  9.0,4.0
# From MPEC 2022-F14
C/2021 C6 (Lemmon),h,11/13.2592/2021,164.6257,332.1549,203.5559,1.001164,3.271366,2000,12.0,4.0
# From MPEC 2022-F14
C/2021 D1 (SWAN),e,31.4420,311.2545,72.2600,99.47363,0.0009934,0.99093226,0.0000,02/27.7069/2021,2000,g 13.0,4.0
# From MPEC 2022-P82
C/2021 D2 (ZTF),h,02/03.9864/2022,83.8232,305.6805,125.0286,1.001690,2.946264,2000,9.0,4.0
# From MPEC 2022-UY9
A/2021 E2,e,167.4882,190.8233,342.4173,229.7864,0.0002830,0.99005171,0.0000,12/10.4376/2020,2000,g 15.0,2.0
# From MPEC 2022-V95
C/2021 E3 (ZTF),h,06/11.9125/2022,112.5544,104.4714,228.8524,1.000907,1.777401,2000,8.5,4.0
# From MPEC 2022-UY9
A/2021 E4,e,116.3612,171.1731,48.2663,626.1710,0.0000629,0.99253250,0.0000,04/25.2301/2022,2000,g 13.5,2.0
# From MPEC 2022-QD9
C/2021 F1 (Lemmon-PANSTARRS),e,107.3264,203.4535,146.8174,230.7619,0.0002812,0.99568637,0.0000,04/06.8626/2022,2000,g 13.5,4.0
# From MPEC 2021-J72
C/2021 G1 (Leonard),e,131.5534,270.6999,107.4604,74.53827,0.0015316,0.95407455,0.7458,11/21.0/2022,2000,g 14.0,4.0
# From MPEC 2022-VC5
C/2021 G2 (ATLAS),e,48.4729,221.1016,343.3461,4863,0.0000029,0.99897588,0.0000,09/09.8218/2024,2000,g  5.5,4.0
# From MPEC 2022-M21
C/2021 G3 (PANSTARRS),h,10/18.3175/2021,102.8784,147.4134,10.6155,1.000577,5.180594,2000,10.5,4.0
# From MPEC 2021-Y10
P/2021 HS (PANSTARRS),e,12.1667,262.3878,46.1040,4.194573,0.1147288,0.80998099,54.1149,11/21.0/2022,2000,g 22.0,4.0
# From MPEC 2022-C56
C/2021 J1 (Maury-Attard),e,92.7214,88.3447,147.3316,26.41214,0.0072610,0.93408418,4.6441,11/21.0/2022,2000,g 15.5,4.0
# From MPEC 2022-M88
C/2021 J2 (PANSTARRS),e,156.2125,23.3335,172.0419,117.9950,0.0007690,0.96011759,0.3265,11/21.0/2022,2000,g 12.0,4.0
# From MPEC 2021-S45
P/2021 J3 (ATLAS),e,14.5368,111.1706,126.0500,8.937874,0.0368852,0.44955915,45.5620,11/21.0/2022,2000,g  7.0,4.0
# From MPEC 2022-O08
C/2021 K1 (ATLAS),e,16.2757,140.9029,184.2800,12.68193,0.0218236,0.80301957,12.3444,11/21.0/2022,2000,g 11.0,4.0
# From MPEC 2022-O01
C/2021 K2 (MASTER),h,09/09.4461/2021,100.8518,282.2480,343.3572,1.001079,5.467753,2000,8.0,4.0
# From MPEC 2022-L66
C/2021 K3 (Catalina),h,02/03.0501/2022,134.7779,114.4546,182.0390,1.003072,5.229842,2000,10.0,4.0
# From MPEC 2021-W31
P/2021 L2 (Leonard),e,21.0697,266.6570,51.5124,4.049425,0.1209523,0.52127718,58.6169,11/21.0/2022,2000,g 17.0,4.0
# From MPEC 2022-UE6
C/2021 L3 (Borisov),h,02/13.8667/2022,78.5794,344.9720,91.6029,1.002704,8.457845,2000,6.0,4.0
# From MPEC 2022-ST7
P/2021 L4 (PANSTARRS),e,16.9597,243.2137,234.4784,3.165803,0.1749759,0.11835046,205.6695,11/21.0/2022,2000,g 13.5,4.0
# From MPEC 2022-TA0
P/2021 N1 (ZTF),e,11.5013,301.1637,21.2150,2.977591,0.1918256,0.67656352,102.1474,11/21.0/2022,2000,g 19.0,4.0
# From MPEC 2022-VC5
P/2021 N2 (Fuls),e,13.0618,221.7392,177.4047,6.935423,0.0539628,0.45249556,20.0934,11/21.0/2022,2000,g  9.5,4.0
# From MPEC 2022-OB6
C/2021 N3 (PANSTARRS),e,26.7410,337.4933,304.7587,155.4938,0.0005083,0.96324309,0.4185,11/21.0/2022,2000,g  8.5,4.0
# From MPEC 2022-A21
C/2021 O1 (Nishimura),e,27.5836,41.6146,74.4205,2354,0.0000086,0.99966600,0.0000,08/13.9564/2021,2000,g 10.5,4.0
# From MPEC 2022-L66
C/2021 O3 (PANSTARRS),h,04/21.0458/2022,56.7940,189.0189,299.9804,1.000082,0.287264,2000,10.5,4.0
# From MPEC 2022-CN4
C/2021 P1 (PANSTARRS),e,51.6365,359.6762,40.4451,2571,0.0000076,0.99829880,0.0000,06/02.2753/2022,2000,g 11.0,4.0
# From MPEC 2022-VC5
C/2021 P2 (PANSTARRS),e,150.0633,32.0781,76.6769,2475,0.0000080,0.99795169,0.0000,01/22.6048/2023,2000,g  9.0,4.0
# From MPEC 2021-W31
P/2021 P3 (PANSTARRS),e,27.1616,358.2394,334.1026,4.413108,0.1063132,0.33929398,57.3754,11/21.0/2022,2000,g 14.0,4.0
# From MPEC 2022-P82
C/2021 P4 (ATLAS),e,56.3105,348.0941,175.8168,319.6748,0.0001724,0.99662022,0.0000,07/30.3654/2022,2000,g  9.5,4.0
# From MPEC 2022-UY9
C/2021 Q3 (ATLAS),e,77.7699,307.9088,114.0935,75.42265,0.0015047,0.93099329,0.4497,11/21.0/2022,2000,g  8.0,4.0
# From MPEC 2022-V95
C/2021 Q4 (Fuls),h,06/10.0317/2023,71.4729,183.3338,146.9708,1.003274,7.564928,2000,6.0,4.0
# From MPEC 2022-C56
P/2021 Q5 (ATLAS),e,10.7362,239.7571,180.9121,3.286395,0.1654339,0.62443705,74.0327,11/21.0/2022,2000,g 15.0,4.0
# From MPEC 2022-V95
C/2021 Q6 (PANSTARRS),e,161.8475,133.5337,140.9026,15160,0.0000005,0.99942544,0.0000,03/23.0094/2024,2000,g  6.0,4.0
# From MPEC 2022-VC5
C/2021 QM45 (PANSTARRS),e,22.8223,354.5887,72.8102,353.3856,0.0001484,0.99215225,0.0000,08/13.4537/2022,2000,g 11.0,4.0
# From MPEC 2022-TA0
P/2021 R1 (PANSTARRS),e,5.5194,143.3716,220.3655,8.361395,0.0407649,0.41565263,13.8006,11/21.0/2022,2000,g 11.0,4.0
# From MPEC 2022-TA0
C/2021 R2 (PANSTARRS),e,134.4809,16.2945,32.4111,2413,0.0000083,0.99696952,0.0000,12/26.4590/2021,2000,g  7.5,4.0
# From MPEC 2021-W31
P/2021 R3 (PANSTARRS),e,19.9274,304.2076,2.8200,3.773503,0.1344581,0.33122350,73.1105,11/21.0/2022,2000,g 16.0,4.0
# From MPEC 2021-W31
P/2021 R4 (Wierzchos),e,21.0386,321.2591,56.6611,5.619931,0.0739789,0.58600806,29.8125,11/21.0/2022,2000,g 16.0,4.0
# From MPEC 2022-CN4
P/2021 R5 (Rankin),e,7.8547,219.9596,167.4036,4.793406,0.0939156,0.30675002,29.3674,11/21.0/2022,2000,g 12.0,4.0
# From MPEC 2021-W31
P/2021 R6 (Groeller),e,34.9269,176.1145,220.7641,6.276977,0.0626727,0.59332923,24.1288,11/21.0/2022,2000,g 14.5,4.0
# From MPEC 2022-ST7
C/2021 R7 (PANSTARRS),e,158.8449,170.1422,140.2626,891.9860,0.0000370,0.99366578,0.0000,04/16.5063/2021,2000,g 10.5,4.0
# From MPEC 2021-Y10
P/2021 R8 (Sheppard),e,2.2034,167.0278,190.7953,3.017270,0.1880541,0.29357075,77.0121,11/21.0/2022,2000,g 18.5,4.0
# From MPEC 2022-V95
C/2021 S1 (ATLAS),h,02/28.9874/2022,52.0800,299.8773,148.1881,1.001625,6.119231,2000,7.0,4.0
# From MPEC 2022-VC5
C/2021 S3 (PANSTARRS),e,58.5344,215.6254,6.8830,29962,0.0000002,0.99995596,0.0000,02/14.7458/2024,2000,g  5.5,4.0
# From MPEC 2022-VC5
C/2021 S4 (Tsuchinshan),e,17.4801,5.4971,72.7708,164.5464,0.0004670,0.95933512,359.8103,11/21.0/2022,2000,g  6.5,4.0
# From MPEC 2022-OB6
C/2021 T1 (Lemmon),e,140.3519,56.8337,51.5246,1259,0.0000221,0.99757061,0.0000,10/14.0620/2021,2000,g 12.5,4.0
# From MPEC 2022-ED3
C/2021 T2 (Fuls),h,06/07.8965/2022,117.5316,223.2317,263.5959,1.000260,1.247738,2000,12.0,4.0
# From MPEC 2022-VC5
C/2021 T4 (Lemmon),h,07/31.4928/2023,160.7671,257.8308,329.7736,1.000224,1.482841,2000,7.5,4.0
# From MPEC 2022-ED3
P/2021 U1 (Wierzchos),e,30.5562,246.7826,145.0830,8.518306,0.0396437,0.71290314,16.4892,11/21.0/2022,2000,g 14.5,4.0
# From MPEC 2022-L66
P/2021 U3 (Attard-Maury),e,69.9585,75.1047,335.2260,4.192213,0.1148257,0.54986936,45.0263,11/21.0/2022,2000,g 15.5,4.0
# From MPEC 2021-W31
C/2021 U4 (Leonard),e,152.8783,241.8117,237.2843,44.68677,0.0032994,0.95999674,1.1023,11/21.0/2022,2000,g 17.0,4.0
# From MPEC 2022-QD9
C/2021 U5 (Catalina),e,39.0506,182.7550,321.4556,217.0398,0.0003082,0.98911283,0.0000,01/26.5834/2022,2000,g 13.0,4.0
# From MPEC 2022-CN4
C/2021 V1 (Rankin),e,71.4541,207.6541,195.1183,609.5288,0.0000655,0.99505593,0.0000,04/30.4042/2022,2000,g 13.0,4.0
# From MPEC 2022-VC5
P/2021 V2 (Fuls),e,12.6943,232.2859,259.8260,9.052697,0.0361857,0.61374737,357.7778,11/21.0/2022,2000,g 10.0,4.0
# From MPEC 2022-VC5
